0 COSMOS 2251 DEB
1 36002U 93036AWU 13290.58137072  .00003399  00000-0  67207-3 0  2789
2 36002 074.0233 010.2728 0089389 181.5857 178.1010 14.60245075231451
0 COSMOS 2251 DEB
1 36002U 93036AWU 13291.90665743  .00004309  00000-0  85010-3 0  2792
2 36002 074.0198 007.7117 0088861 179.2237 304.5611 14.60266620231646
0 COSMOS 2251 DEB
1 36002U 93036AWU 13293.60952786  .00004361  00000-0  86004-3 0  2801
2 36002 074.0197 004.4588 0088849 175.5816 256.4934 14.60278923231898
0 COSMOS 2251 DEB
1 36002U 93036AWU 13295.87972341  .00004483  00000-0  88395-3 0  2812
2 36002 074.0191 000.1187 0088646 170.6847 310.9941 14.60295993232223
